[
    {
        "Altitude(m)": 624792.7536364292,
        "Argument of Periapsis(deg)": 0.0,
        "Eccentricity": 0.0,
        "Inclination(deg)": 60.0,
        "Latitude(deg)": -59.14703168114253,
        "Longitude(deg)": 154.02625010498673,
        "Mean Anomaly(deg)": 261.8182,
        "RAAN(deg)": 0.0,
        "Satellite Name": "Test1 16",
        "Satellite Number": 16,
        "Semi-Major Axis(m)": 6980739.136638005,
        "Time(s)": 0
    },
    {
        "Altitude(m)": 624842.14631656,
        "Argument of Periapsis(deg)": 0.00010418945913296404,
        "Eccentricity": 0.0,
        "Inclination(deg)": 60.0,
        "Latitude(deg)": -59.28911708662162,
        "Longitude(deg)": 155.15575148981466,
        "Mean Anomaly(deg)": 262.43830614546187,
        "RAAN(deg)": -0.0004200491397426661,
        "Satellite Name": "Test1 16",
        "Satellite Number": 16,
        "Semi-Major Axis(m)": 6980739.136638005,
        "Time(s)": 10
    }
]